[
  {
    "OBJECT_NAME": "STARLINK-4593",
    "OBJECT_ID": "22104AX",
    "EPOCH": "2025-11-11T05:51:09.367488",
    "MEAN_MOTION": 15.08841848,
    "ECCENTRICITY": 0.0001304,
    "INCLINATION": 53.2191,
    "RA_OF_ASC_NODE": 35.8691,
    "ARG_OF_PERICENTER": 82.5961,
    "MEAN_ANOMALY": 277.5179,
    "EPHEMERIS_TYPE": 0,
    "CLASSIFICATION_TYPE": "U",
    "NORAD_CAT_ID": 53633,
    "ELEMENT_SET_NO": 999,
    "REV_AT_EPOCH": 17801,
    "BSTAR": 7.736800000000001e-05,
    "MEAN_MOTION_DOT": 9.44e-06,
    "MEAN_MOTION_DDOT": 0.0,
    "TLE_LINE1": "1 53633U 22104AX  25315.24385842  .00000944  00000+0  77368-4 0  9992",
    "TLE_LINE2": "2 53633  53.2191  35.8691 0001304  82.5961 277.5179 15.08841848178016",
    "COMMENT": "Grouped by shell and plane from TLE"
  },
  {
    "OBJECT_NAME": "STARLINK-4592",
    "OBJECT_ID": "22104AY",
    "EPOCH": "2025-11-11T05:35:14.580960",
    "MEAN_MOTION": 15.08852021,
    "ECCENTRICITY": 0.0001391,
    "INCLINATION": 53.2163,
    "RA_OF_ASC_NODE": 35.7974,
    "ARG_OF_PERICENTER": 82.735,
    "MEAN_ANOMALY": 277.38,
    "EPHEMERIS_TYPE": 0,
    "CLASSIFICATION_TYPE": "U",
    "NORAD_CAT_ID": 53634,
    "ELEMENT_SET_NO": 999,
    "REV_AT_EPOCH": 17834,
    "BSTAR": 0.00019234000000000002,
    "MEAN_MOTION_DOT": 2.775e-05,
    "MEAN_MOTION_DDOT": 0.0,
    "TLE_LINE1": "1 53634U 22104AY  25315.23280765  .00002775  00000+0  19234-3 0  9991",
    "TLE_LINE2": "2 53634  53.2163  35.7974 0001391  82.7350 277.3800 15.08852021178349",
    "COMMENT": "Grouped by shell and plane from TLE"
  },
  {
    "OBJECT_NAME": "STARLINK-4587",
    "OBJECT_ID": "22104AZ",
    "EPOCH": "2025-11-11T05:40:32.530368",
    "MEAN_MOTION": 15.08844387,
    "ECCENTRICITY": 0.0001363,
    "INCLINATION": 53.2185,
    "RA_OF_ASC_NODE": 35.821,
    "ARG_OF_PERICENTER": 89.3139,
    "MEAN_ANOMALY": 270.801,
    "EPHEMERIS_TYPE": 0,
    "CLASSIFICATION_TYPE": "U",
    "NORAD_CAT_ID": 53635,
    "ELEMENT_SET_NO": 999,
    "REV_AT_EPOCH": 17834,
    "BSTAR": 0.0,
    "MEAN_MOTION_DOT": -3.25e-06,
    "MEAN_MOTION_DDOT": 0.0,
    "TLE_LINE1": "1 53635U 22104AZ  25315.23648762 -.00000325  00000+0 -23590-5 0  9990",
    "TLE_LINE2": "2 53635  53.2185  35.8210 0001363  89.3139 270.8010 15.08844387178342",
    "COMMENT": "Grouped by shell and plane from TLE"
  },
  {
    "OBJECT_NAME": "STARLINK-4586",
    "OBJECT_ID": "22104BA",
    "EPOCH": "2025-11-11T05:24:38.416032",
    "MEAN_MOTION": 15.08902871,
    "ECCENTRICITY": 0.0001284,
    "INCLINATION": 53.2171,
    "RA_OF_ASC_NODE": 35.7505,
    "ARG_OF_PERICENTER": 101.3019,
    "MEAN_ANOMALY": 258.8118,
    "EPHEMERIS_TYPE": 0,
    "CLASSIFICATION_TYPE": "U",
    "NORAD_CAT_ID": 53636,
    "ELEMENT_SET_NO": 999,
    "REV_AT_EPOCH": 17834,
    "BSTAR": 0.0017438000000000002,
    "MEAN_MOTION_DOT": 0.00027622,
    "MEAN_MOTION_DDOT": 0.0,
    "TLE_LINE1": "1 53636U 22104BA  25315.22544463  .00027622  00000+0  17438-2 0  9991",
    "TLE_LINE2": "2 53636  53.2171  35.7505 0001284 101.3019 258.8118 15.08902871178346",
    "COMMENT": "Grouped by shell and plane from TLE"
  },
  {
    "OBJECT_NAME": "STARLINK-4396",
    "OBJECT_ID": "22104BB",
    "EPOCH": "2025-11-11T06:13:45.806880",
    "MEAN_MOTION": 15.08838148,
    "ECCENTRICITY": 0.0001268,
    "INCLINATION": 53.2192,
    "RA_OF_ASC_NODE": 35.9593,
    "ARG_OF_PERICENTER": 92.9561,
    "MEAN_ANOMALY": 267.1576,
    "EPHEMERIS_TYPE": 0,
    "CLASSIFICATION_TYPE": "U",
    "NORAD_CAT_ID": 53637,
    "ELEMENT_SET_NO": 999,
    "REV_AT_EPOCH": 17834,
    "BSTAR": 0.0,
    "MEAN_MOTION_DOT": -5.37e-06,
    "MEAN_MOTION_DDOT": 0.0,
    "TLE_LINE1": "1 53637U 22104BB  25315.25955795 -.00000537  00000+0 -15678-4 0  9993",
    "TLE_LINE2": "2 53637  53.2192  35.9593 0001268  92.9561 267.1576 15.08838148178344",
    "COMMENT": "Grouped by shell and plane from TLE"
  },
  {
    "OBJECT_NAME": "STARLINK-4594",
    "OBJECT_ID": "22104BC",
    "EPOCH": "2025-11-11T06:33:29.163744",
    "MEAN_MOTION": 15.08844284,
    "ECCENTRICITY": 0.0001281,
    "INCLINATION": 53.2182,
    "RA_OF_ASC_NODE": 35.345,
    "ARG_OF_PERICENTER": 89.2641,
    "MEAN_ANOMALY": 270.8498,
    "EPHEMERIS_TYPE": 0,
    "CLASSIFICATION_TYPE": "U",
    "NORAD_CAT_ID": 53638,
    "ELEMENT_SET_NO": 999,
    "REV_AT_EPOCH": 17835,
    "BSTAR": 0.00011128,
    "MEAN_MOTION_DOT": 1.484e-05,
    "MEAN_MOTION_DDOT": 0.0,
    "TLE_LINE1": "1 53638U 22104BC  25315.27325421  .00001484  00000+0  11128-3 0  9998",
    "TLE_LINE2": "2 53638  53.2182  35.3450 0001281  89.2641 270.8498 15.08844284178356",
    "COMMENT": "Grouped by shell and plane from TLE"
  },
  {
    "OBJECT_NAME": "STARLINK-4422",
    "OBJECT_ID": "22104BD",
    "EPOCH": "2025-11-11T06:54:42.331680",
    "MEAN_MOTION": 15.08841638,
    "ECCENTRICITY": 0.0001256,
    "INCLINATION": 53.2179,
    "RA_OF_ASC_NODE": 35.4332,
    "ARG_OF_PERICENTER": 72.7722,
    "MEAN_ANOMALY": 287.3408,
    "EPHEMERIS_TYPE": 0,
    "CLASSIFICATION_TYPE": "U",
    "NORAD_CAT_ID": 53639,
    "ELEMENT_SET_NO": 999,
    "REV_AT_EPOCH": 17818,
    "BSTAR": 0.00010636,
    "MEAN_MOTION_DOT": 1.405e-05,
    "MEAN_MOTION_DDOT": 0.0,
    "TLE_LINE1": "1 53639U 22104BD  25315.28798995  .00001405  00000+0  10636-3 0  9996",
    "TLE_LINE2": "2 53639  53.2179  35.4332 0001256  72.7722 287.3408 15.08841638178187",
    "COMMENT": "Grouped by shell and plane from TLE"
  },
  {
    "OBJECT_NAME": "STARLINK-4597",
    "OBJECT_ID": "22104BE",
    "EPOCH": "2025-11-11T05:14:01.144320",
    "MEAN_MOTION": 15.08850131,
    "ECCENTRICITY": 0.0001492,
    "INCLINATION": 53.216,
    "RA_OF_ASC_NODE": 35.707,
    "ARG_OF_PERICENTER": 78.1533,
    "MEAN_ANOMALY": 281.9627,
    "EPHEMERIS_TYPE": 0,
    "CLASSIFICATION_TYPE": "U",
    "NORAD_CAT_ID": 53640,
    "ELEMENT_SET_NO": 999,
    "REV_AT_EPOCH": 17834,
    "BSTAR": 0.00041153,
    "MEAN_MOTION_DOT": 6.269e-05,
    "MEAN_MOTION_DDOT": 0.0,
    "TLE_LINE1": "1 53640U 22104BE  25315.21806880  .00006269  00000+0  41153-3 0  9995",
    "TLE_LINE2": "2 53640  53.2160  35.7070 0001492  78.1533 281.9627 15.08850131178342",
    "COMMENT": "Grouped by shell and plane from TLE"
  },
  {
    "OBJECT_NAME": "STARLINK-4588",
    "OBJECT_ID": "22104BF",
    "EPOCH": "2025-11-11T05:29:56.481216",
    "MEAN_MOTION": 15.08844777,
    "ECCENTRICITY": 0.0001305,
    "INCLINATION": 53.2198,
    "RA_OF_ASC_NODE": 35.7722,
    "ARG_OF_PERICENTER": 112.928,
    "MEAN_ANOMALY": 247.185,
    "EPHEMERIS_TYPE": 0,
    "CLASSIFICATION_TYPE": "U",
    "NORAD_CAT_ID": 53641,
    "ELEMENT_SET_NO": 999,
    "REV_AT_EPOCH": 17834,
    "BSTAR": 0.00046041,
    "MEAN_MOTION_DOT": 7.048e-05,
    "MEAN_MOTION_DDOT": 0.0,
    "TLE_LINE1": "1 53641U 22104BF  25315.22912594  .00007048  00000+0  46041-3 0  9994",
    "TLE_LINE2": "2 53641  53.2198  35.7722 0001305 112.9280 247.1850 15.08844777178348",
    "COMMENT": "Grouped by shell and plane from TLE"
  },
  {
    "OBJECT_NAME": "STARLINK-4644",
    "OBJECT_ID": "22107V",
    "EPOCH": "2025-11-10T11:39:27.796896",
    "MEAN_MOTION": 15.08846091,
    "ECCENTRICITY": 0.0001397,
    "INCLINATION": 53.2183,
    "RA_OF_ASC_NODE": 38.8701,
    "ARG_OF_PERICENTER": 86.4003,
    "MEAN_ANOMALY": 273.7149,
    "EPHEMERIS_TYPE": 0,
    "CLASSIFICATION_TYPE": "U",
    "NORAD_CAT_ID": 53719,
    "ELEMENT_SET_NO": 999,
    "REV_AT_EPOCH": 17684,
    "BSTAR": 4.9181e-05,
    "MEAN_MOTION_DOT": 4.95e-06,
    "MEAN_MOTION_DDOT": 0.0,
    "TLE_LINE1": "1 53719U 22107V   25314.48573839  .00000495  00000+0  49181-4 0  9993",
    "TLE_LINE2": "2 53719  53.2183  38.8701 0001397  86.4003 273.7149 15.08846091176848",
    "COMMENT": "Grouped by shell and plane from TLE"
  },
  {
    "OBJECT_NAME": "STARLINK-4633",
    "OBJECT_ID": "22125A",
    "EPOCH": "2025-11-11T05:03:29.258784",
    "MEAN_MOTION": 15.08847705,
    "ECCENTRICITY": 0.000133,
    "INCLINATION": 53.2185,
    "RA_OF_ASC_NODE": 36.1475,
    "ARG_OF_PERICENTER": 93.0375,
    "MEAN_ANOMALY": 267.0769,
    "EPHEMERIS_TYPE": 0,
    "CLASSIFICATION_TYPE": "U",
    "NORAD_CAT_ID": 53964,
    "ELEMENT_SET_NO": 999,
    "REV_AT_EPOCH": 17143,
    "BSTAR": 8.313000000000001e-05,
    "MEAN_MOTION_DOT": 1.036e-05,
    "MEAN_MOTION_DDOT": 0.0,
    "TLE_LINE1": "1 53964U 22125A   25315.21075531  .00001036  00000+0  83130-4 0  9997",
    "TLE_LINE2": "2 53964  53.2185  36.1475 0001330  93.0375 267.0769 15.08847705171431",
    "COMMENT": "Grouped by shell and plane from TLE"
  },
  {
    "OBJECT_NAME": "STARLINK-4578",
    "OBJECT_ID": "22125B",
    "EPOCH": "2025-11-11T06:34:57.071424",
    "MEAN_MOTION": 15.08839855,
    "ECCENTRICITY": 0.000133,
    "INCLINATION": 53.2179,
    "RA_OF_ASC_NODE": 35.8328,
    "ARG_OF_PERICENTER": 91.7179,
    "MEAN_ANOMALY": 268.3966,
    "EPHEMERIS_TYPE": 0,
    "CLASSIFICATION_TYPE": "U",
    "NORAD_CAT_ID": 53965,
    "ELEMENT_SET_NO": 999,
    "REV_AT_EPOCH": 17144,
    "BSTAR": 1.1235000000000002e-05,
    "MEAN_MOTION_DOT": -1.09e-06,
    "MEAN_MOTION_DDOT": 0.0,
    "TLE_LINE1": "1 53965U 22125B   25315.27427166 -.00000109  00000+0  11235-4 0  9997",
    "TLE_LINE2": "2 53965  53.2179  35.8328 0001330  91.7179 268.3966 15.08839855171446",
    "COMMENT": "Grouped by shell and plane from TLE"
  },
  {
    "OBJECT_NAME": "STARLINK-4635",
    "OBJECT_ID": "22125C",
    "EPOCH": "2025-11-10T14:34:24.177792",
    "MEAN_MOTION": 15.08845889,
    "ECCENTRICITY": 0.0001338,
    "INCLINATION": 53.219,
    "RA_OF_ASC_NODE": 38.7793,
    "ARG_OF_PERICENTER": 91.2113,
    "MEAN_ANOMALY": 268.9033,
    "EPHEMERIS_TYPE": 0,
    "CLASSIFICATION_TYPE": "U",
    "NORAD_CAT_ID": 53966,
    "ELEMENT_SET_NO": 999,
    "REV_AT_EPOCH": 17134,
    "BSTAR": 0.00012725,
    "MEAN_MOTION_DOT": 1.738e-05,
    "MEAN_MOTION_DDOT": 0.0,
    "TLE_LINE1": "1 53966U 22125C   25314.60722428  .00001738  00000+0  12725-3 0  9995",
    "TLE_LINE2": "2 53966  53.2190  38.7793 0001338  91.2113 268.9033 15.08845889171343",
    "COMMENT": "Grouped by shell and plane from TLE"
  }
]